NORAD_CAT_ID,OBJECT_NAME,OBJECT_TYPE,EPOCH,MEAN_MOTION,ECCENTRICITY,INCLINATION,RA_OF_ASC_NODE,ARG_OF_PERICENTER,MEAN_ANOMALY,BSTAR,MEAN_MOTION_DOT,MEAN_MOTION_DDOT,TLE_LINE0,TLE_LINE1,TLE_LINE2,SEMIMAJOR_AXIS,PERIOD,APOGEE,PERIGEE,DECAYED
51890.0,STARLINK-3519,PAYLOAD,2023-01-09 15:51:31,15.08838357,0.0002292,53.215,144.2594,42.8544,317.2626,0.00011777,1.586e-05,0.0,0 STARLINK-3519,1 51890U 22022AQ  23009.66077663  .00001586  00000-0  11777-3 0  9992,2 51890  53.2150 144.2594 0002292  42.8544 317.2626 15.08838357 48874,6917.885,95.438,541.336,538.165,0.0
51890.0,STARLINK-3519,PAYLOAD,2023-01-10 12:31:31,15.08845878,0.000241,53.2149,140.393,40.3385,319.7785,7.869600000000001e-05,9.65e-06,0.0,0 STARLINK-3519,1 51890U 22022AQ  23010.52189343  .00000965  00000-0  78696-4 0  9992,2 51890  53.2149 140.3930 0002410  40.3385 319.7785 15.08845878 49006,6917.861999999999,95.437,541.395,538.06,0.0
51890.0,STARLINK-3519,PAYLOAD,2023-01-10 18:53:03,15.08853141,0.0002445,53.2149,139.2035,40.5124,319.605,0.00014252,1.981e-05,0.0,0 STARLINK-3519,1 51890U 22022AQ  23010.78684652  .00001981  00000-0  14252-3 0  9999,2 51890  53.2149 139.2035 0002445  40.5124 319.6050 15.08853141 49040,6917.84,95.437,541.3969999999998,538.014,0.0
51890.0,STARLINK-3519,PAYLOAD,2023-01-11 12:22:19,15.08821694,0.00023,53.2143,135.93200000000002,76.3457,283.7791,-0.00015187,-2.703e-05,0.0,0 STARLINK-3519,1 51890U 22022AQ  23011.51550923 -.00002703  00000-0 -15187-3 0  9997,2 51890  53.2143 135.9320 0002300  76.3457 283.7791 15.08821694 49153,6917.936,95.439,541.3919999999998,538.21,0.0
51890.0,STARLINK-3519,PAYLOAD,2023-01-11 18:43:52,15.08821056,0.0002123,53.2141,134.7425,66.4858,293.6357,-0.00013235,-2.393e-05,0.0,0 STARLINK-3519,1 51890U 22022AQ  23011.78047304 -.00002393  00000-0 -13235-3 0  9997,2 51890  53.2141 134.7425 0002123  66.4858 293.6357 15.08821056 49196,6917.938,95.439,541.2719999999998,538.335,0.0
51890.0,STARLINK-3519,PAYLOAD,2023-01-12 10:37:44,15.08827559,0.0002189,53.2115,131.766,41.7914,318.3245,8.0907e-05,9.99e-06,0.0,0 STARLINK-3519,1 51890U 22022AQ  23012.44287714  .00000999  00000-0  80907-4 0  9991,2 51890  53.2115 131.7660 0002189  41.7914 318.3245 15.08827559 49292,6917.9180000000015,95.438,541.298,538.269,0.0
51890.0,STARLINK-3519,PAYLOAD,2023-01-13 00:56:12,15.08841339,0.0002158,53.2147,129.093,47.47,312.6474,0.00017305,2.467e-05,0.0,0 STARLINK-3519,1 51890U 22022AQ  23013.03903307  .00002467  00000-0  17305-3 0  9993,2 51890  53.2147 129.0930 0002158  47.4700 312.6474 15.08841339 49382,6917.876,95.437,541.234,538.248,0.0
51890.0,STARLINK-3519,PAYLOAD,2023-01-13 12:03:55,15.08838663,0.0002396999999999,53.2141,127.0137,48.7012,311.4187,0.00031279,4.693e-05,0.0,0 STARLINK-3519,1 51890U 22022AQ  23013.50272274  .00004693  00000-0  31279-3 0  9996,2 51890  53.2141 127.0137 0002397  48.7012 311.4187 15.08838663 49450,6917.884,95.438,541.408,538.091,0.0
51890.0,STARLINK-3519,PAYLOAD,2023-01-13 16:50:04,15.08845247,0.0002102,53.2115,126.1171,63.4937,296.627,0.00044127,6.743e-05,0.0,0 STARLINK-3519,1 51890U 22022AQ  23013.70143933  .00006743  00000-0  44127-3 0  9991,2 51890  53.2115 126.1171 0002102  63.4937 296.6270 15.08845247 49489,6917.8640000000005,95.437,541.183,538.275,0.0
51890.0,STARLINK-3519,PAYLOAD,2023-01-14 13:30:04,15.08846787,0.0001984,53.2123,122.2538,63.5015,296.618,0.0003633,5.5e-05,0.0,0 STARLINK-3519,1 51890U 22022AQ  23014.56255787  .00005500  00000-0  36330-3 0  9994,2 51890  53.2123 122.2538 0001984  63.5015 296.6180 15.08846787 49612,6917.86,95.437,541.097,538.352,0.0
51890.0,STARLINK-3519,PAYLOAD,2023-01-15 13:20:52,15.08837508,0.0001645,53.2133,117.7933,70.0142,290.1027,0.00039506,6.005e-05,0.0,0 STARLINK-3519,1 51890U 22022AQ  23015.55616512  .00006005  00000-0  39506-3 0  9990,2 51890  53.2133 117.7933 0001645  70.0142 290.1027 15.08837508 49765,6917.888000000001,95.438,540.891,538.615,0.0
51890.0,STARLINK-3519,PAYLOAD,2023-01-15 16:31:38,15.08845581,0.0001492,53.2133,117.1957,84.4186,275.6976,0.00079553,0.00012397,0.0,0 STARLINK-3519,1 51890U 22022AQ  23015.68864356  .00012397  00000-0  79553-3 0  9992,2 51890  53.2133 117.1957 0001492  84.4186 275.6976 15.08845581 49785,6917.863,95.437,540.76,538.696,0.0
51890.0,STARLINK-3519,PAYLOAD,2023-01-16 11:36:16,15.08856321,0.0001606,53.2127,113.6286,80.2123,279.905,0.0011429,0.00017956,0.0,0 STARLINK-3519,1 51890U 22022AQ  23016.48352300  .00017956  00000-0  11429-2 0  9995,2 51890  53.2127 113.6286 0001606  80.2123 279.9050 15.08856321 49904,6917.831,95.437,540.807,538.5840000000001,0.0
51890.0,STARLINK-3519,PAYLOAD,2023-01-16 13:11:39,15.08865239,0.0001618,53.2133,113.3316,77.1361,282.9812,0.0015262,0.00024102,0.0,0 STARLINK-3519,1 51890U 22022AQ  23016.54976161  .00024102  00000-0  15262-2 0  9999,2 51890  53.2133 113.3316 0001618  77.1361 282.9812 15.08865239 49913,6917.803000000001,95.436,540.788,538.549,0.0
51890.0,STARLINK-3519,PAYLOAD,2023-01-16 16:22:25,15.08880092,0.0001449,53.214,112.7373,75.6662,284.4491,0.0018981999999999,0.00030084,0.0,0 STARLINK-3519,1 51890U 22022AQ  23016.68223714  .00030084  00000-0  18982-2 0  9991,2 51890  53.2140 112.7373 0001449  75.6662 284.4491 15.08880092 49932,6917.758000000001,95.435,540.625,538.62,0.0
51890.0,STARLINK-3519,PAYLOAD,2023-01-16 22:43:58,15.08828572,0.0001694,53.2147,111.5473,83.2421,276.8764,0.00018202,2.609e-05,0.0,0 STARLINK-3519,1 51890U 22022AQ  23016.94720690  .00002609  00000-0  18202-3 0  9993,2 51890  53.2147 111.5473 0001694  83.2421 276.8764 15.08828572 49974,6917.915,95.438,540.952,538.6080000000001,0.0
51890.0,STARLINK-3519,PAYLOAD,2023-01-17 13:02:28,15.08806133,0.0001713,53.2155,108.8736,101.7009,258.4175,0.00073968,0.00011493,0.0,0 STARLINK-3519,1 51890U 22022AQ  23017.54338058  .00011493  00000-0  73968-3 0  9994,2 51890  53.2155 108.8736 0001713 101.7009 258.4175 15.08806133 50067,6917.984,95.44,541.034,538.664,0.0
51890.0,STARLINK-3519,PAYLOAD,2023-01-18 06:31:42,15.08855734,0.0001836,53.2148,105.6007,102.7618,257.358,0.0017913,0.00028348,0.0,0 STARLINK-3519,1 51890U 22022AQ  23018.27202181  .00028348  00000-0  17913-2 0  9996,2 51890  53.2148 105.6007 0001836 102.7618 257.3580 15.08855734 50179,6917.831999999999,95.437,540.967,538.427,0.0
51890.0,STARLINK-3519,PAYLOAD,2023-01-18 09:42:28,15.08874013,0.0001423,53.2151,105.007,101.5617,258.5535,0.0024362,0.00038734,0.0,0 STARLINK-3519,1 51890U 22022AQ  23018.40449875  .00038734  00000-0  24362-2 0  9990,2 51890  53.2151 105.0070 0001423 101.5617 258.5535 15.08874013 50191,6917.776,95.435,540.626,538.6569999999999,0.0
51890.0,STARLINK-3519,PAYLOAD,2023-01-18 22:25:32,15.08878308,0.000146,53.2149,102.627,79.39,280.7256,0.0020377,0.00032325,0.0,0 STARLINK-3519,1 51890U 22022AQ  23018.93440965  .00032325  00000-0  20377-2 0  9991,2 51890  53.2149 102.6270 0001460  79.3900 280.7256 15.08878308 50278,6917.763000000001,95.435,540.638,538.618,0.0
51890.0,STARLINK-3519,PAYLOAD,2023-01-19 06:22:28,15.08846117,0.0001403,53.2156,101.1415,86.6054,273.5099,0.00077699,0.00012101,0.0,0 STARLINK-3519,1 51890U 22022AQ  23019.26561003  .00012101  00000-0  77699-3 0  9995,2 51890  53.2156 101.1415 0001403  86.6054 273.5099 15.08846117 50323,6917.861999999999,95.437,540.697,538.756,0.0
51890.0,STARLINK-3519,PAYLOAD,2023-01-19 09:33:14,15.08847287,0.0001228,53.216,100.5468,85.6444,274.4689,0.001862,0.00029476,0.0,0 STARLINK-3519,1 51890U 22022AQ  23019.39808944  .00029476  00000-0  18620-2 0  9998,2 51890  53.2160 100.5468 0001228  85.6444 274.4689 15.08847287 50342,6917.858,95.437,540.573,538.874,0.0
51890.0,STARLINK-3519,PAYLOAD,2023-01-19 12:44:01,15.08855635,0.0001323,53.2147,99.9513,82.0482,278.0661,0.0024396,0.00038769,0.0,0 STARLINK-3519,1 51890U 22022AQ  23019.53056935  .00038769  00000-0  24396-2 0  9991,2 51890  53.2147  99.9513 0001323  82.0482 278.0661 15.08855635 50366,6917.8330000000005,95.437,540.613,538.7819999999999,0.0
51890.0,STARLINK-3519,PAYLOAD,2023-01-19 22:16:19,15.08856658,0.0001364,53.2148,98.1673,88.3085,271.8063,0.0013645999999999,0.00021506,0.0,0 STARLINK-3519,1 51890U 22022AQ  23019.92800881  .00021506  00000-0  13646-2 0  9998,2 51890  53.2148  98.1673 0001364  88.3085 271.8063 15.08856658 50428,6917.829000000001,95.437,540.638,538.751,0.0
51890.0,STARLINK-3519,PAYLOAD,2023-01-20 10:59:25,15.08851119,0.0001093,53.215,95.7881,95.0639,265.0478,0.0015245999999999,0.00024067,0.0,0 STARLINK-3519,1 51890U 22022AQ  23020.45792838  .00024067  00000-0  15246-2 0  9993,2 51890  53.2150  95.7881 0001093  95.0639 265.0478 15.08851119 50505,6917.846,95.437,540.4680000000001,538.955,0.0
51890.0,STARLINK-3519,PAYLOAD,2023-01-21 04:28:39,15.08864685,0.0003076,53.2147,92.5175,81.2519,278.8822,0.0019861,0.00031485,0.0,0 STARLINK-3519,1 51890U 22022AQ  23021.18657342  .00031485  00000-0  19861-2 0  9993,2 51890  53.2147  92.5175 0003076  81.2519 278.8822 15.08864685 50618,6917.805,95.436,541.798,537.5419999999999,0.0
51890.0,STARLINK-3519,PAYLOAD,2023-01-21 10:50:12,15.08854811,8.93e-05,53.2145,91.3279,87.1803,272.9291,0.0019353999999999,0.00030661,0.0,0 STARLINK-3519,1 51890U 22022AQ  23021.45152784  .00030661  00000-0  19354-2 0  9995,2 51890  53.2145  91.3279 0000893  87.1803 272.9291 15.08854811 50652,6917.835,95.437,540.318,539.082,0.0
51890.0,STARLINK-3519,PAYLOAD,2023-01-21 14:00:58,15.08865716,9.24e-05,53.2143,90.733,83.8685,276.2412,0.0028546999999999,0.0004547,0.0,0 STARLINK-3519,1 51890U 22022AQ  23021.58400711  .00045470  00000-0  28547-2 0  9993,2 51890  53.2143  90.7330 0000924  83.8685 276.2412 15.08865716 50677,6917.802,95.436,540.306,539.028,0.0
51890.0,STARLINK-3519,PAYLOAD,2023-01-22 13:51:45,15.08859443,0.0001127,53.2148,86.2715,65.7964,294.3146,0.0017326,0.00027409,0.0,0 STARLINK-3519,1 51890U 22022AQ  23022.57761111  .00027409  00000-0  17326-2 0  9992,2 51890  53.2148  86.2715 0001127  65.7964 294.3146 15.08859443 50826,6917.821,95.436,540.466,538.906,0.0
